[{"OBJECT_NAME":"STARLINK-6029","OBJECT_ID":"2023-078AN","EPOCH":"2026-03-09T23:24:27.768096","MEAN_MOTION":14.98329288,"ECCENTRICITY":0.00028402,"INCLINATION":70.0008,"RA_OF_ASC_NODE":343.7116,"ARG_OF_PERICENTER":268.0414,"MEAN_ANOMALY":92.042,"EPHEMERIS_TYPE":0,"CLASSIFICATION_TYPE":"U","NORAD_CAT_ID":56803,"ELEMENT_SET_NO":999,"REV_AT_EPOCH":15272,"BSTAR":-3.8886079e-5,"MEAN_MOTION_DOT":-5.57e-6,"MEAN_MOTION_DDOT":0},{"OBJECT_NAME":"FENGYUN 1C DEB","OBJECT_ID":"1999-025CAL","EPOCH":"2026-03-09T07:00:43.678944","MEAN_MOTION":15.11095595,"ECCENTRICITY":0.01530884,"INCLINATION":98.0969,"RA_OF_ASC_NODE":245.5084,"ARG_OF_PERICENTER":64.0772,"MEAN_ANOMALY":297.6143,"EPHEMERIS_TYPE":0,"CLASSIFICATION_TYPE":"U","NORAD_CAT_ID":31630,"ELEMENT_SET_NO":999,"REV_AT_EPOCH":99895,"BSTAR":0.00096285175,"MEAN_MOTION_DOT":0.00021366,"MEAN_MOTION_DDOT":0}]
